NORAD_CAT_ID,OBJECT_NAME,OBJECT_TYPE,EPOCH,MEAN_MOTION,ECCENTRICITY,INCLINATION,RA_OF_ASC_NODE,ARG_OF_PERICENTER,MEAN_ANOMALY,BSTAR,MEAN_MOTION_DOT,MEAN_MOTION_DDOT,TLE_LINE0,TLE_LINE1,TLE_LINE2,SEMIMAJOR_AXIS,PERIOD,APOGEE,PERIGEE,DECAYED
52845.0,STARLINK-4168,PAYLOAD,2022-12-19 05:28:20,15.08845598,0.0002982,53.2169,275.4776,26.2273,333.8869,0.00021245,3.095e-05,0.0,0 STARLINK-4168,1 52845U 22062R   22353.22801483  .00003095  00000-0  21245-3 0  9993,2 52845  53.2169 275.4776 0002982  26.2273 333.8869 15.08845598 28185,6917.863,95.437,541.7909999999998,537.665,0.0
52845.0,STARLINK-4168,PAYLOAD,2022-12-20 05:19:06,15.08851728,0.0002888,53.217,271.0165,26.8977,333.2164,0.00017297,2.466e-05,0.0,0 STARLINK-4168,1 52845U 22062R   22354.22160872  .00002466  00000-0  17297-3 0  9997,2 52845  53.2170 271.0165 0002888  26.8977 333.2164 15.08851728 28828,6917.845,95.437,541.707,537.712,0.0
52845.0,STARLINK-4168,PAYLOAD,2022-12-20 06:54:30,15.08853121,0.0002907,53.217,270.719,26.8582,333.256,0.00018571,2.669e-05,0.0,0 STARLINK-4168,1 52845U 22062R   22354.28784764  .00002669  00000-0  18571-3 0  9996,2 52845  53.2170 270.7190 0002907  26.8582 333.2560 15.08853121 28342,6917.84,95.437,541.716,537.694,0.0
52845.0,STARLINK-4168,PAYLOAD,2022-12-20 21:12:58,15.08844542,0.0002946,53.2176,268.0424,26.2646,333.8495,9.3054e-05,1.193e-05,0.0,0 STARLINK-4168,1 52845U 22062R   22354.88400990  .00001193  00000-0  93054-4 0  9999,2 52845  53.2176 268.0424 0002946  26.2646 333.8495 15.08844542 28920,6917.8669999999975,95.437,541.77,537.694,0.0
52845.0,STARLINK-4168,PAYLOAD,2022-12-21 03:34:32,15.08835261,0.0002947,53.2172,266.85400000000004,28.1324,331.9827,-0.00011746,-2.157e-05,0.0,0 STARLINK-4168,1 52845U 22062R   22355.14898172 -.00002157  00000-0 -11746-3 0  9992,2 52845  53.2172 266.8540 0002947  28.1324 331.9827 15.08835261 28966,6917.895,95.438,541.799,537.721,0.0
52845.0,STARLINK-4168,PAYLOAD,2022-12-21 17:53:01,15.08823374,0.0002955,53.2173,264.178,28.6966,331.4188,-0.00011614,-2.136e-05,0.0,0 STARLINK-4168,1 52845U 22062R   22355.74515289 -.00002136  00000-0 -11614-3 0  9994,2 52845  53.2173 264.1780 0002955  28.6966 331.4188 15.08823374 29058,6917.931,95.439,541.84,537.752,0.0
52845.0,STARLINK-4168,PAYLOAD,2022-12-22 03:25:19,15.08830563,0.0002951,53.2168,262.3944,29.0966,331.019,-6.7382e-05,-1.361e-05,0.0,0 STARLINK-4168,1 52845U 22062R   22356.14258969 -.00001361  00000-0 -67382-4 0  9991,2 52845  53.2168 262.3944 0002951  29.0966 331.0190 15.08830563 29119,6917.909000000002,95.438,541.816,537.7330000000002,0.0
52845.0,STARLINK-4168,PAYLOAD,2022-12-22 11:22:14,15.08840872,0.0002977,53.217,260.907,30.4414,329.675,5.2215e-05,5.43e-06,0.0,0 STARLINK-4168,1 52845U 22062R   22356.47378061  .00000543  00000-0  52215-4 0  9991,2 52845  53.2170 260.9070 0002977  30.4414 329.6750 15.08840872 29162,6917.878000000002,95.437,541.802,537.683,0.0
52845.0,STARLINK-4168,PAYLOAD,2022-12-22 17:43:47,15.08844379,0.0003312,53.217,259.7175,31.9869,328.1324,3.9424e-05,3.39e-06,0.0,0 STARLINK-4168,1 52845U 22062R   22356.73873972  .00000339  00000-0  39424-4 0  9991,2 52845  53.2170 259.7175 0003312  31.9869 328.1324 15.08844379 28715,6917.8669999999975,95.437,542.023,537.441,0.0
52845.0,STARLINK-4168,PAYLOAD,2022-12-23 03:16:06,15.08837889,0.0003074,53.2167,257.9332,31.3057,328.8118,0.00024055,3.542e-05,0.0,0 STARLINK-4168,1 52845U 22062R   22357.13618779  .00003542  00000-0  24055-3 0  9990,2 52845  53.2167 257.9332 0003074  31.3057 328.8118 15.08837889 29261,6917.887,95.438,541.878,537.625,0.0
52845.0,STARLINK-4168,PAYLOAD,2022-12-23 11:13:02,15.0883813,0.0003268,53.2169,256.4467,31.43,328.6886,0.00030358,4.546e-05,0.0,0 STARLINK-4168,1 52845U 22062R   22357.46738936  .00004546  00000-0  30358-3 0  9992,2 52845  53.2169 256.4467 0003268  31.4300 328.6886 15.08838130 28824,6917.886,95.438,542.012,537.49,0.0
52845.0,STARLINK-4168,PAYLOAD,2022-12-23 23:56:07,15.08835609,0.0003098,53.2167,254.0677,33.1003,327.0183,0.00023704,3.486e-05,0.0,0 STARLINK-4168,1 52845U 22062R   22357.99731400  .00003486  00000-0  23704-3 0  9998,2 52845  53.2167 254.0677 0003098  33.1003 327.0183 15.08835609 29393,6917.894,95.438,541.9019999999998,537.616,0.0
52845.0,STARLINK-4168,PAYLOAD,2022-12-24 03:06:53,15.08844437,0.0003202,53.2168,253.4723,33.8642,326.2554,0.00023654,3.479e-05,0.0,0 STARLINK-4168,1 52845U 22062R   22358.12979002  .00003479  00000-0  23654-3 0  9992,2 52845  53.2168 253.4723 0003202  33.8642 326.2554 15.08844437 29417,6917.8669999999975,95.437,541.947,537.5169999999998,0.0
52845.0,STARLINK-4168,PAYLOAD,2022-12-24 20:36:08,15.08841059,0.0002595,53.216,250.2011,43.6645,316.4552,8.8144e-05,1.115e-05,0.0,0 STARLINK-4168,1 52845U 22062R   22358.85842933  .00001115  00000-0  88144-4 0  9995,2 52845  53.2160 250.2011 0002595  43.6645 316.4552 15.08841059 29034,6917.877,95.437,541.5369999999998,537.947,0.0
52845.0,STARLINK-4168,PAYLOAD,2022-12-25 02:57:41,15.08835962,0.000308,53.2167,249.0116,29.8953,330.2214,3.7107e-05,3.02e-06,0.0,0 STARLINK-4168,1 52845U 22062R   22359.12339431  .00000302  00000-0  37107-4 0  9990,2 52845  53.2167 249.0116 0003080  29.8953 330.2214 15.08835962 29564,6917.893,95.438,541.888,537.627,0.0
52845.0,STARLINK-4168,PAYLOAD,2022-12-25 09:19:13,15.08841168,0.000301,53.2165,247.8229,30.1275,329.9890000000001,5.8711e-05,6.46e-06,0.0,0 STARLINK-4168,1 52845U 22062R   22359.38835017  .00000646  00000-0  58711-4 0  9994,2 52845  53.2165 247.8229 0003010  30.1275 329.9890 15.08841168 29119,6917.877,95.437,541.8240000000002,537.66,0.0
52845.0,STARLINK-4168,PAYLOAD,2022-12-25 17:16:09,15.0883531,0.0002853,53.2168,246.3369,35.1854,324.9326,-4.239e-05,-9.63e-06,0.0,0 STARLINK-4168,1 52845U 22062R   22359.71955796 -.00000963  00000-0 -42390-4 0  9998,2 52845  53.2168 246.3369 0002853  35.1854 324.9326 15.08835310 29169,6917.895,95.438,541.7330000000002,537.786,0.0
52845.0,STARLINK-4168,PAYLOAD,2022-12-26 09:10:00,15.08840618,0.0003024,53.2175,243.3635,35.2512,324.868,8.0293e-06,-1.61e-06,0.0,0 STARLINK-4168,1 52845U 22062R   22360.38195525 -.00000161  00000-0  80293-5 0  9993,2 52845  53.2175 243.3635 0003024  35.2512 324.8680 15.08840618 29263,6917.878000000002,95.438,541.835,537.6519999999998,0.0
52845.0,STARLINK-4168,PAYLOAD,2022-12-26 17:06:56,15.08832577,0.0003039,53.2171,241.8756,31.5485,328.5689,6.8416e-05,8e-06,0.0,0 STARLINK-4168,1 52845U 22062R   22360.71315883  .00000800  00000-0  68416-4 0  9992,2 52845  53.2171 241.8756 0003039  31.5485 328.5689 15.08832577 29805,6917.903,95.438,541.87,537.6659999999998,0.0
52845.0,STARLINK-4168,PAYLOAD,2022-12-27 09:00:48,15.08837909,0.0003097,53.2172,238.9028,34.0673,326.0517,0.00010953,1.455e-05,0.0,0 STARLINK-4168,1 52845U 22062R   22361.37555740  .00001455  00000-0  10953-3 0  9992,2 52845  53.2172 238.9028 0003097  34.0673 326.0517 15.08837909 29410,6917.887,95.438,541.894,537.609,0.0
52845.0,STARLINK-4168,PAYLOAD,2022-12-27 16:57:43,15.08844505,0.0003071,53.217,237.4151,32.4074,327.7106,0.00023183,3.404e-05,0.0,0 STARLINK-4168,1 52845U 22062R   22361.70675050  .00003404  00000-0  23183-3 0  9991,2 52845  53.2170 237.4151 0003071  32.4074 327.7106 15.08844505 29465,6917.8669999999975,95.437,541.856,537.607,0.0
52845.0,STARLINK-4168,PAYLOAD,2022-12-28 00:54:38,15.08855294,0.0003101,53.2171,235.9282,33.0733,327.0452,0.00027163,4.039e-05,0.0,0 STARLINK-4168,1 52845U 22062R   22362.03794273  .00004039  00000-0  27163-3 0  9994,2 52845  53.2171 235.9282 0003101  33.0733 327.0452 15.08855294 30003,6917.834,95.437,541.844,537.553,0.0
52845.0,STARLINK-4168,PAYLOAD,2022-12-28 19:59:16,15.08840256,0.0003146,53.2156,232.3596,31.3387,328.7793,4.8033e-05,4.76e-06,0.0,0 STARLINK-4168,1 52845U 22062R   22362.83283238  .00000476  00000-0  48033-4 0  9997,2 52845  53.2156 232.3596 0003146  31.3387 328.7793 15.08840256 30121,6917.88,95.438,541.9209999999998,537.568,0.0
52845.0,STARLINK-4168,PAYLOAD,2022-12-29 08:42:22,15.08830271,0.000317,53.2147,229.9805,33.2233,326.8957,-0.00019853,-3.446e-05,0.0,0 STARLINK-4168,1 52845U 22062R   22363.36275603 -.00003446  00000-0 -19853-3 0  9992,2 52845  53.2147 229.9805 0003170  33.2233 326.8957 15.08830271 30200,6917.91,95.438,541.9680000000002,537.582,0.0
52845.0,STARLINK-4168,PAYLOAD,2022-12-30 08:33:09,15.0884475,0.0002943,53.2163,225.5196,37.9265,322.1934,-3.3092e-05,-8.15e-06,0.0,0 STARLINK-4168,1 52845U 22062R   22364.35635699 -.00000815  00000-0 -33092-4 0  9996,2 52845  53.2163 225.5196 0002943  37.9265 322.1934 15.08844750 30353,6917.866,95.437,541.7669999999998,537.695,0.0
52845.0,STARLINK-4168,PAYLOAD,2022-12-31 00:27:00,15.088493599999998,0.0003165,53.2152,222.547,34.5131,325.6066,0.00038051,5.774e-05,0.0,0 STARLINK-4168,1 52845U 22062R   22365.01875754  .00005774  00000-0  38051-3 0  9994,2 52845  53.2152 222.5470 0003165  34.5131 325.6066 15.08849360 29966,6917.852,95.437,541.906,537.5269999999998,0.0
52845.0,STARLINK-4168,PAYLOAD,2022-12-31 14:45:28,15.08855643,0.0003207,53.2151,219.8703,35.0631,325.0571,0.00047107,7.219999999999999e-05,0.0,0 STARLINK-4168,1 52845U 22062R   22365.61491414  .00007220  00000-0  47107-3 0  9997,2 52845  53.2151 219.8703 0003207  35.0631 325.0571 15.08855643 30543,6917.833000000001,95.437,541.9159999999998,537.479,0.0
52845.0,STARLINK-4168,PAYLOAD,2022-12-31 17:56:14,15.08856143,0.000321,53.2152,219.2754,35.6124,324.5082,0.00044696,6.836e-05,0.0,0 STARLINK-4168,1 52845U 22062R   22365.74739368  .00006836  00000-0  44696-3 0  9996,2 52845  53.2152 219.2754 0003210  35.6124 324.5082 15.08856143 30076,6917.831,95.437,541.9169999999998,537.475,0.0
52845.0,STARLINK-4168,PAYLOAD,2023-01-01 00:17:47,15.08853176,0.0003218999999999,53.2155,218.0861,34.9784,325.1419,0.00024089,3.549e-05,0.0,0 STARLINK-4168,1 52845U 22062R   23001.01235256  .00003549  00000-0  24089-3 0  9993,2 52845  53.2155 218.0861 0003219  34.9784 325.1419 15.08853176 30601,6917.84,95.437,541.932,537.4780000000002,0.0
